[{"OBJECT_NAME":"EXCITE","OBJECT_ID":"2018-099BP","EPOCH":"2026-03-09T16:45:15.060672","MEAN_MOTION":15.06036758,"ECCENTRICITY":0.0017626,"INCLINATION":97.4107,"RA_OF_ASC_NODE":111.3606,"ARG_OF_PERICENTER":337.4818,"MEAN_ANOMALY":22.5634,"EPHEMERIS_TYPE":0,"CLASSIFICATION_TYPE":"U","NORAD_CAT_ID":43819,"ELEMENT_SET_NO":999,"REV_AT_EPOCH":39677,"BSTAR":0.00019631388,"MEAN_MOTION_DOT":2.813e-5,"MEAN_MOTION_DDOT":0},{"OBJECT_NAME":"STARLINK-4699","OBJECT_ID":"2022-107S","EPOCH":"2026-03-09T22:11:48.741216","MEAN_MOTION":15.08836772,"ECCENTRICITY":0.00013465,"INCLINATION":53.216,"RA_OF_ASC_NODE":252.7435,"ARG_OF_PERICENTER":91.4444,"MEAN_ANOMALY":268.6702,"EPHEMERIS_TYPE":0,"CLASSIFICATION_TYPE":"U","NORAD_CAT_ID":53716,"ELEMENT_SET_NO":999,"REV_AT_EPOCH":19444,"BSTAR":1.174359e-6,"MEAN_MOTION_DOT":-2.69e-6,"MEAN_MOTION_DDOT":0}]
